IRIDIUM 159             
1 43578U 18061K   25258.73689655  .00000127  00000+0  38140-4 0  9993
2 43578  86.4044 171.4088 0002030  81.7284 278.4142 14.34218038374049
IRIDIUM 180             
1 43922U 19002A   25258.66660797  .00000065  00000+0  16178-4 0  9998
2 43922  86.3928 108.3839 0002036  90.1344 270.0085 14.34217854349649
IRIDIUM 176             
1 43923U 19002B   25258.70537969  .00000742  00000+0  11369-3 0  9996
2 43923  86.6052 108.3512 0002923  93.7780 266.3772 14.72261739358865
IRIDIUM 168             
1 43924U 19002C   25258.66026516  .00000104  00000+0  30231-4 0  9995
2 43924  86.3930 108.4562 0002122  88.7901 271.3538 14.34218164349626
IRIDIUM 173             
1 43925U 19002D   25258.64757954  .00000193  00000+0  61930-4 0  9999
2 43925  86.3928 108.3615 0002160  92.7361 267.4082 14.34218017349604
IRIDIUM 169             
1 43926U 19002E   25258.71561648  .00000222  00000+0  66130-4 0  9991
2 43926  86.4255 139.9570 0003135 103.1950 256.9598 14.38609698350760
IRIDIUM 172             
1 43927U 19002F   25258.64123708  .00000018  00000+0 -50669-6 0  9991
2 43927  86.3926 108.3712 0001843  89.7480 270.3927 14.34217824349614
IRIDIUM 175             
1 43928U 19002G   25258.70052197  .00000871  00000+0  13409-3 0  9996
2 43928  86.1474  55.6951 0002979  78.4963 281.6588 14.72246911358857
